STARLINK-5670
1 55341U 23013L   26090.83335647  .00876497  00000+0  33149-1 0  9994
2 55341  43.0007 178.4995 0001393 281.3900 245.1841 15.23811749  5816
